[{"OBJECT_NAME":"STARLINK-30429","OBJECT_ID":"2023-144N","EPOCH":"2026-03-09T00:24:54.111744","MEAN_MOTION":15.26759403,"ECCENTRICITY":0.00012155,"INCLINATION":43.0056,"RA_OF_ASC_NODE":289.0794,"ARG_OF_PERICENTER":320.7626,"MEAN_ANOMALY":39.3137,"EPHEMERIS_TYPE":0,"CLASSIFICATION_TYPE":"U","NORAD_CAT_ID":57876,"ELEMENT_SET_NO":999,"REV_AT_EPOCH":13753,"BSTAR":0.00018839136,"MEAN_MOTION_DOT":4.8e-5,"MEAN_MOTION_DDOT":0},{"OBJECT_NAME":"SL-3 R\/B","OBJECT_ID":"1982-027B","EPOCH":"2026-03-09T22:44:40.208640","MEAN_MOTION":15.28335844,"ECCENTRICITY":0.00065199,"INCLINATION":81.188,"RA_OF_ASC_NODE":37.4466,"ARG_OF_PERICENTER":276.581,"MEAN_ANOMALY":83.4683,"EPHEMERIS_TYPE":0,"CLASSIFICATION_TYPE":"U","NORAD_CAT_ID":13121,"ELEMENT_SET_NO":999,"REV_AT_EPOCH":39859,"BSTAR":0.00030526741,"MEAN_MOTION_DOT":8.453e-5,"MEAN_MOTION_DDOT":0}]
